{
  "type": "FeatureCollection",
  "features": [
    {
      "type": "Feature",
      "properties": {
        "OBJECTID": 37,
        "MUNICIPAL": "City of Owen Sound",
        "EDITOR": "SDE",
        "EDIT_DATE": "2024-11-14T15:32:35Z",
        "Shape_STArea__": 2454.74518379,
        "Shape_STLength__": 0,
        "MUN_NAME": "Owen Sound",
        "TYPE": "City",
        "Shape__Area": 48520143.76953125,
        "Shape__Length": 47344.20517496922
      },
      "geometry": {
        "type": "Polygon",
        "coordinates": [
          [
            [
              -80.9199395362694,
              44.6025520707398
            ],
            [
              -80.9198808663999,
              44.6025834422649
            ],
            [
              -80.9198485027952,
              44.6026098006266
            ],
            [
              -80.9196466989615,
              44.6027536997628
            ],
            [
              -80.9195954716342,
              44.6027925141249
            ],
            [
              -80.9194448969245,
              44.6029066001595
            ],
            [
              -80.9193188031031,
              44.6029964985664
            ],
            [
              -80.9190917000161,
              44.6032033949782
            ],
            [
              -80.9190782378632,
              44.6032137998049
            ],
            [
              -80.9189402997547,
              44.6033204043993
            ],
            [
              -80.9188140972371,
              44.6034192998657
            ],
            [
              -80.9186753955606,
              44.6035181996408
            ],
            [
              -80.9185366040526,
              44.6036352007528
            ],
            [
              -80.9184356046685,
              44.6037431016476
            ],
            [
              -80.9183346942177,
              44.6038690986577
            ],
            [
              -80.9182085024799,
              44.604003998346
            ],
            [
              -80.9181393510676,
              44.6040807005424
            ],
            [
              -80.9180949006307,
              44.6041300024652
            ],
            [
              -80.9179686981131,
              44.6042468980939
            ],
            [
              -80.9178550944673,
              44.6043639002966
            ],
            [
              -80.9177541031681,
              44.6044807992922
            ],
            [
              -80.9176394880194,
              44.604603405604
            ],
            [
              -80.9176278988539,
              44.6046157960543
            ],
            [
              -80.9175924450446,
              44.6046599911758
            ],
            [
              -80.9175268985715,
              44.6047416977941
            ],
            [
              -80.9174478845558,
              44.6048231542254
            ],
            [
              -80.9174134027236,
              44.6048587015585
            ],
            [
              -80.9174026921105,
              44.6048840720312
            ],
            [
              -80.917375406682,
              44.6049487011945
            ],
            [
              -80.9173604605123,
              44.6049841864125
            ],
            [
              -80.9173422570514,
              44.6050274123074
            ],
            [
              -80.9173375013703,
              44.6050387000514
            ],
            [
              -80.9172995035321,
              44.6051376987608
            ],
            [
              -80.9172763144213,
              44.6051680251164
            ],
            [
              -80.9172238034014,
              44.6052366998598
            ],
            [
              -80.9172191851625,
              44.6052428064378
            ],
            [
              -80.9171859942094,
              44.6052866908929
            ],
            [
              -80.9171354028892,
              44.6053535951803
            ],
            [
              -80.9170840039836,
              44.6054164643799
            ],
            [
              -80.9170597368945,
              44.6054461478283
            ],
            [
              -80.9170471038867,
              44.6054615984114
            ],
            [
              -80.9169713013481,
              44.6055426023019
            ],
            [
              -80.9169343320809,
              44.6055900540093
            ],
            [
              -80.9169082018859,
              44.6056235977651
            ],
            [
              -80.9169332972217,
              44.605695596409
            ],
            [
              -80.9170088967411,
              44.6057317015448
            ],
            [
              -80.9170399137712,
              44.6057494487141
            ],
            [
              -80.9170718030654,
              44.6057677011307
            ],
            [
              -80.9170465011172,
              44.6058217004678
            ],
            [
              -80.9169709015978,
              44.6058306997128
            ],
            [
              -80.9168701034364,
              44.6058305986624
            ],
            [
              -80.9168572593244,
              44.6058346611454
            ],
            [
              -80.9167565986053,
              44.6058664984158
            ],
            [
              -80.9167070933483,
              44.6058967783426
            ],
            [
              -80.9166683049926,
              44.6059204970214
            ],
            [
              -80.916592602167,
              44.6060013998614
            ],
            [
              -80.9165556796122,
              44.6060803180435
            ],
            [
              -80.9165547058384,
              44.6060823966035
            ],
            [
              -80.9165241819834,
              44.6061172159903
            ],
            [
              -80.9164915973931,
              44.6061543985162
            ],
            [
              -80.9164513968858,
              44.6061830781243
            ],
            [
              -80.9164159026523,
              44.606208401331
            ],
            [
              -80.9163330267791,
              44.6062851639327
            ],
            [
              -80.9162896947448,
              44.6063252998126
            ],
            [
              -80.9162266024691,
              44.6064152984554
            ],
            [
              -80.9161776299131,
              44.6064711729983
            ],
            [
              -80.9161697768409,
              44.606480137607
            ],
            [
              -80.9161635030069,
              44.6064872980367
            ],
            [
              -80.9161254961856,
              44.6065772989867
            ],
            [
              -80.9161757973499,
              44.6066582981237
            ],
            [
              -80.916146311049,
              44.6066845753322
            ],
            [
              -80.9161252985562,
              44.6067032943266
            ],
            [
              -80.916062298807,
              44.606757301108
            ],
            [
              -80.9159992020398,
              44.6068201994868
            ],
            [
              -80.915910899444,
              44.6068561996772
            ],
            [
              -80.9158990362923,
              44.6068618257842
            ],
            [
              -80.9158351993133,
              44.6068920962385
            ],
            [
              -80.9158200249715,
              44.6069245539302
            ],
            [
              -80.9157846951297,
              44.6070001017256
            ],
            [
              -80.915721605549,
              44.6070630989712
            ],
            [
              -80.9156549496566,
              44.6071058289503
            ],
            [
              -80.9155954012347,
              44.6071440008593
            ],
            [
              -80.9154691960222,
              44.6072699968886
            ],
            [
              -80.915450786847,
              44.6072909943881
            ],
            [
              -80.9154003563253,
              44.6073484976443
            ],
            [
              -80.9153550246411,
              44.6074001893219
            ],
            [
              -80.9153429961995,
              44.6074138979118
            ],
            [
              -80.9152476660832,
              44.6075120931469
            ],
            [
              -80.915229396147,
              44.6075309039685
            ],
            [
              -80.9152138004953,
              44.6075457163749
            ],
            [
              -80.9151157969928,
              44.6076387969878
            ],
            [
              -80.9150941799338,
              44.6076850382537
            ],
            [
              -80.9150863088952,
              44.607701872204
            ],
            [
              -80.9150653026906,
              44.6077467972492
            ],
            [
              -80.9150904007214,
              44.6078007979442
            ],
            [
              -80.9150903387376,
              44.6078272735321
            ],
            [
              -80.9150902992117,
              44.6078459000648
            ],
            [
              -80.9150021017188,
              44.607863798798
            ],
            [
              -80.9149139051242,
              44.6078637009488
            ],
            [
              -80.9148508002722,
              44.6078996960158
            ],
            [
              -80.9148182156819,
              44.6079368774007
            ],
            [
              -80.91478770081,
              44.6079716975944
            ],
            [
              -80.9147371993213,
              44.6080255951151
            ],
            [
              -80.9146741995721,
              44.6079985977563
            ],
            [
              -80.9146578924548,
              44.6080160270233
            ],
            [
              -80.9146303294469,
              44.6080455121664
            ],
            [
              -80.9144722933305,
              44.6082154524361
            ],
            [
              -80.9144750682265,
              44.6082318027455
            ],
            [
              -80.9145351996549,
              44.6082686008375
            ],
            [
              -80.9145098968083,
              44.608331599905
            ],
            [
              -80.9145032546651,
              44.6083398735319
            ],
            [
              -80.9144594007096,
              44.6083945016954
            ],
            [
              -80.9144844951471,
              44.6084395963201
            ],
            [
              -80.9144466958365,
              44.6084936002082
            ],
            [
              -80.9144309313016,
              44.6085048233255
            ],
            [
              -80.9143710037907,
              44.6085474953259
            ],
            [
              -80.9142987594789,
              44.6085990298915
            ],
            [
              -80.9141955717989,
              44.608579169948
            ],
            [
              -80.914127760673,
              44.60856611843
            ],
            [
              -80.9139839466842,
              44.6085384395836
            ],
            [
              -80.9137637219974,
              44.6084960547257
            ],
            [
              -80.9131027317299,
              44.608368833455
            ],
            [
              -80.912652751231,
              44.6082613037673
            ],
            [
              -80.9125151958048,
              44.6082701306001
            ],
            [
              -80.9107474388864,
              44.6084782495587
            ],
            [
              -80.90173841726,
              44.6095384376204
            ],
            [
              -80.9017186156962,
              44.6094491440907
            ],
            [
              -80.9016897698941,
              44.6093190675266
            ],
            [
              -80.9016490807033,
              44.6091355853839
            ],
            [
              -80.9011361983716,
              44.6068227097158
            ],
            [
              -80.9009465954562,
              44.605996928073
            ],
            [
              -80.9008805710794,
              44.6057093642408
            ],
            [
              -80.9005396388695,
              44.6042244188724
            ],
            [
              -80.9005106277774,
              44.6040980567939
            ],
            [
              -80.9005096836481,
              44.6040936827145
            ],
            [
              -80.9001004453406,
              44.6021795632045
            ],
            [
              -80.9000808027786,
              44.602087685248
            ],
            [
              -80.8999353547543,
              44.6014073531413
            ],
            [
              -80.8999353457712,
              44.6014073141252
            ],
            [
              -80.8997612540657,
              44.6006222579645
            ],
            [
              -80.8993298893545,
              44.5986769555692
            ],
            [
              -80.8993293620434,
              44.5986745748349
            ],
            [
              -80.8993293539586,
              44.5986745415737
            ],
            [
              -80.8991939185565,
              44.5980638013173
            ],
            [
              -80.8990026205201,
              44.5972011342237
            ],
            [
              -80.8989916377174,
              44.5971516044606
            ],
            [
              -80.8987202288223,
              44.5959276266269
            ],
            [
              -80.8985133396259,
              44.5950234804947
            ],
            [
              -80.898193924762,
              44.593627516011
            ],
            [
              -80.8981260202113,
              44.5933307394436
            ],
            [
              -80.8981060758154,
              44.593244281731
            ],
            [
              -80.8948403539062,
              44.5936158729388
            ],
            [
              -80.8948217947125,
              44.5935266822332
            ],
            [
              -80.8943397829855,
              44.5914518535051
            ],
            [
              -80.8942854519788,
              44.591217974701
            ],
            [
              -80.894176247383,
              44.5907478735128
            ],
            [
              -80.8941161141579,
              44.5904891812878
            ],
            [
              -80.8936172185952,
              44.5883428311837
            ],
            [
              -80.893556837435,
              44.5880830573042
            ],
            [
              -80.8931589448496,
              44.5863723027974
            ],
            [
              -80.8929889530551,
              44.5856413891664
            ],
            [
              -80.8929193740448,
              44.5853422122908
            ],
            [
              -80.8924785401921,
              44.5834466442818
            ],
            [
              -80.8922985896744,
              44.5826728250227
            ],
            [
              -80.8943091288748,
              44.5824555333411
            ],
            [
              -80.8955584608562,
              44.5822878914502
            ],
            [
              -80.8944542229628,
              44.5775350716814
            ],
            [
              -80.8948719251969,
              44.5774954527664
            ],
            [
              -80.895002565392,
              44.5774946906794
            ],
            [
              -80.8951533961215,
              44.5774803882679
            ],
            [
              -80.8942909694313,
              44.5736695974579
            ],
            [
              -80.8933472667674,
              44.5694955736015
            ],
            [
              -80.8935385962449,
              44.5694735084301
            ],
            [
              -80.8933620736983,
              44.5686803534261
            ],
            [
              -80.8922414235847,
              44.5638415686508
            ],
            [
              -80.8918497733922,
              44.5621297699307
            ],
            [
              -80.8960586239417,
              44.5616406148921
            ],
            [
              -80.903827759372,
              44.5607600245859
            ],
            [
              -80.9047859725226,
              44.5606513782274
            ],
            [
              -80.9122217072183,
              44.5598065091357
            ],
            [
              -80.9129982109499,
              44.5597182509802
            ],
            [
              -80.9180840480838,
              44.5591336919761
            ],
            [
              -80.9205654491218,
              44.5588483970298
            ],
            [
              -80.9257034882551,
              44.5582230207696
            ],
            [
              -80.924059562302,
              44.5509029724554
            ],
            [
              -80.9242246187523,
              44.5508837195156
            ],
            [
              -80.9247117221303,
              44.5508268972196
            ],
            [
              -80.9249929576963,
              44.5507940893954
            ],
            [
              -80.92505763999,
              44.550786543766
            ],
            [
              -80.9258250545676,
              44.5506970165629
            ],
            [
              -80.9268268997899,
              44.550584377254
            ],
            [
              -80.9277680341703,
              44.5504781906292
            ],
            [
              -80.9278524201115,
              44.5504686495524
            ],
            [
              -80.9283086079689,
              44.5504169514081
            ],
            [
              -80.9292324443903,
              44.5503122503139
            ],
            [
              -80.9294204033887,
              44.5502908884559
            ],
            [
              -80.9297334914181,
              44.5502552725384
            ],
            [
              -80.9299671656814,
              44.550228661253
            ],
            [
              -80.9301974658725,
              44.5502024142132
            ],
            [
              -80.930417655525,
              44.5501772970653
            ],
            [
              -80.9305491482213,
              44.5501622882279
            ],
            [
              -80.9306548269297,
              44.5501502248201
            ],
            [
              -80.9308649231117,
              44.5501262234707
            ],
            [
              -80.9310148294747,
              44.5501090854052
            ],
            [
              -80.9311055656066,
              44.5500987114029
            ],
            [
              -80.9313462269662,
              44.5500711705143
            ],
            [
              -80.9315644600881,
              44.5500461679009
            ],
            [
              -80.9315938691338,
              44.5500427993074
            ],
            [
              -80.9315939553721,
              44.5500427890647
            ],
            [
              -80.9317326274042,
              44.550026901234
            ],
            [
              -80.932033268377,
              44.5499924125017
            ],
            [
              -80.9322641758292,
              44.5499659016035
            ],
            [
              -80.932502333584,
              44.5499385296582
            ],
            [
              -80.9326045501853,
              44.5499267760485
            ],
            [
              -80.9334834501812,
              44.5498253933852
            ],
            [
              -80.9342529272906,
              44.549736625874
            ],
            [
              -80.9342833819754,
              44.5497330869756
            ],
            [
              -80.935936871393,
              44.5495409221648
            ],
            [
              -80.9363168165373,
              44.5494967625921
            ],
            [
              -80.9364467075375,
              44.5494816652344
            ],
            [
              -80.9366970778887,
              44.5494525645751
            ],
            [
              -80.9372429553407,
              44.5493887744348
            ],
            [
              -80.9370120559734,
              44.5493066750309
            ],
            [
              -80.936834528212,
              44.5491699320592
            ],
            [
              -80.9366780982834,
              44.5490593684739
            ],
            [
              -80.9366136782977,
              44.5489426819428
            ],
            [
              -80.9365680519661,
              44.5488032346054
            ],
            [
              -80.9365348232837,
              44.5486504287534
            ],
            [
              -80.9365325909703,
              44.5483886926878
            ],
            [
              -80.9365791254986,
              44.5482426794804
            ],
            [
              -80.936653628175,
              44.5480103208213
            ],
            [
              -80.9367729558858,
              44.5478056248461
            ],
            [
              -80.9369649159805,
              44.5476290303836
            ],
            [
              -80.9367680780338,
              44.5472087637153
            ],
            [
              -80.9363583348731,
              44.5463306803938
            ],
            [
              -80.9362932537274,
              44.5461912088727
            ],
            [
              -80.9354261045938,
              44.5443327974373
            ],
            [
              -80.9353062702332,
              44.5440759698787
            ],
            [
              -80.9352322445622,
              44.54391742018
            ],
            [
              -80.9343700226879,
              44.5420706183636
            ],
            [
              -80.934069999756,
              44.5414279679204
            ],
            [
              -80.9356385363955,
              44.5412491112431
            ],
            [
              -80.9358160605637,
              44.5412290131544
            ],
            [
              -80.9363414312744,
              44.5411729907359
            ],
            [
              -80.9383456130975,
              44.5409592543865
            ],
            [
              -80.9383563803045,
              44.5409581063761
            ],
            [
              -80.9384039856247,
              44.5409530302874
            ],
            [
              -80.9390513870769,
              44.5408802112881
            ],
            [
              -80.9391097137899,
              44.5408736503963
            ],
            [
              -80.9391278346059,
              44.5409574161613
            ],
            [
              -80.9391290796708,
              44.5409638745999
            ],
            [
              -80.9391892003195,
              44.5412759039886
            ],
            [
              -80.9392450656487,
              44.5415658546684
            ],
            [
              -80.9392451608702,
              44.5415663470337
            ],
            [
              -80.9393428490641,
              44.5420733676455
            ],
            [
              -80.9394052514336,
              44.5423972396979
            ],
            [
              -80.9394496785143,
              44.5426278222863
            ],
            [
              -80.9394933932309,
              44.5428547039414
            ],
            [
              -80.9394956390192,
              44.5428663616606
            ],
            [
              -80.9396244026337,
              44.5435346559782
            ],
            [
              -80.9405639739455,
              44.5434328844359
            ],
            [
              -80.9405708227013,
              44.543464766132
            ],
            [
              -80.9405791330159,
              44.5434897664505
            ],
            [
              -80.9406119844059,
              44.5435886350245
            ],
            [
              -80.9406998701834,
              44.5438531425118
            ],
            [
              -80.9408809696463,
              44.5439482906707
            ],
            [
              -80.9410001653048,
              44.544010917055
            ],
            [
              -80.94104179593,
              44.5441695401265
            ],
            [
              -80.9411240232195,
              44.5442190830177
            ],
            [
              -80.94128658415,
              44.5443170277723
            ],
            [
              -80.9412191736727,
              44.544466391573
            ],
            [
              -80.9411730290132,
              44.5445686331609
            ],
            [
              -80.9410153980371,
              44.5446311199472
            ],
            [
              -80.9409274601573,
              44.5446659940752
            ],
            [
              -80.9410337245672,
              44.5448472212735
            ],
            [
              -80.9410833807411,
              44.544931921819
            ],
            [
              -80.9410423061731,
              44.5450637385864
            ],
            [
              -80.9410168443247,
              44.5451454547166
            ],
            [
              -80.9409628555761,
              44.5453139610614
            ],
            [
              -80.9407971855764,
              44.5455491154542
            ],
            [
              -80.940779424985,
              44.5455743351142
            ],
            [
              -80.9404914116301,
              44.5457226809385
            ],
            [
              -80.9404846518076,
              44.5457261618206
            ],
            [
              -80.9404574544141,
              44.5459903708573
            ],
            [
              -80.9406471220082,
              44.5461656328795
            ],
            [
              -80.9408417824387,
              44.5462149493563
            ],
            [
              -80.9409272499515,
              44.5462294828911
            ],
            [
              -80.9408905142462,
              44.5463199203089
            ],
            [
              -80.944654738256,
              44.5459138967462
            ],
            [
              -80.9446420971634,
              44.5458431838729
            ],
            [
              -80.9447587353181,
              44.5458467223675
            ],
            [
              -80.9451858105739,
              44.5457981808855
            ],
            [
              -80.9457641028347,
              44.5457324494315
            ],
            [
              -80.9469240443605,
              44.5456009786181
            ],
            [
              -80.9472794870571,
              44.5455606900451
            ],
            [
              -80.9484000437459,
              44.5454340647017
            ],
            [
              -80.9483643428999,
              44.5455726519686
            ],
            [
              -80.9483963121442,
              44.5457558354199
            ],
            [
              -80.9484753333465,
              44.5458873257304
            ],
            [
              -80.9485915798359,
              44.5460048212199
            ],
            [
              -80.9486144320784,
              44.5460279190009
            ],
            [
              -80.9486836805087,
              44.5461138060709
            ],
            [
              -80.9487376387145,
              44.5461961500593
            ],
            [
              -80.9488065197339,
              44.546320183437
            ],
            [
              -80.9488597071852,
              44.5464649562529
            ],
            [
              -80.9488624290805,
              44.5464695971564
            ],
            [
              -80.948962660405,
              44.5466405625601
            ],
            [
              -80.9490507545917,
              44.546752348419
            ],
            [
              -80.9493776676932,
              44.5470655919848
            ],
            [
              -80.949579412238,
              44.5473012418615
            ],
            [
              -80.9498118396397,
              44.5475203511848
            ],
            [
              -80.9499828635984,
              44.5477725560384
            ],
            [
              -80.9500913414572,
              44.5479742745767
            ],
            [
              -80.9501013208417,
              44.547973036437
            ],
            [
              -80.9526281667516,
              44.5476595250294
            ],
            [
              -80.9532650561183,
              44.5475804948693
            ],
            [
              -80.9549786940324,
              44.5473864247503
            ],
            [
              -80.9552702871736,
              44.5473534126825
            ],
            [
              -80.9560250040647,
              44.5472679685422
            ],
            [
              -80.9576395407349,
              44.5470851618092
            ],
            [
              -80.9577493139643,
              44.5470745433493
            ],
            [
              -80.958558977208,
              44.5505396794515
            ],
            [
              -80.9586643235397,
              44.5509905045933
            ],
            [
              -80.9595639171264,
              44.5548399665498
            ],
            [
              -80.9597991418819,
              44.555851141287
            ],
            [
              -80.9599407630831,
              44.5564599208467
            ],
            [
              -80.9610756470023,
              44.5613379062571
            ],
            [
              -80.9611882894507,
              44.5618220241343
            ],
            [
              -80.9611888535927,
              44.5618245017447
            ],
            [
              -80.9620254887528,
              44.5655024149834
            ],
            [
              -80.9620802419677,
              44.5658454328289
            ],
            [
              -80.9620924356994,
              44.5659656713805
            ],
            [
              -80.9621614963818,
              44.5666466679768
            ],
            [
              -80.9622157995407,
              44.5668999758432
            ],
            [
              -80.9622654934439,
              44.5671318405326
            ],
            [
              -80.9624382511511,
              44.5679379038654
            ],
            [
              -80.9626279870173,
              44.5688237881259
            ],
            [
              -80.9627013910541,
              44.5691665092816
            ],
            [
              -80.9627131571877,
              44.5692214539383
            ],
            [
              -80.9627461882407,
              44.5693757365623
            ],
            [
              -80.9629316382445,
              44.5702420733703
            ],
            [
              -80.9630038627934,
              44.5705795475575
            ],
            [
              -80.9630504521189,
              44.5707972906272
            ],
            [
              -80.9631424018748,
              44.5712270346945
            ],
            [
              -80.9631941053093,
              44.5714686783052
            ],
            [
              -80.963318362076,
              44.571452273495
            ],
            [
              -80.9633317739232,
              44.5715149662746
            ],
            [
              -80.9634540840407,
              44.5720866720058
            ],
            [
              -80.9634856975522,
              44.5722344338276
            ],
            [
              -80.9636306955205,
              44.5723149273002
            ],
            [
              -80.9636784239099,
              44.5725380315735
            ],
            [
              -80.9637441850803,
              44.572845434635
            ],
            [
              -80.9642092446995,
              44.5732296762581
            ],
            [
              -80.9641758812698,
              44.5732353760121
            ],
            [
              -80.9639981091667,
              44.5732657452542
            ],
            [
              -80.962427158754,
              44.5735340981385
            ],
            [
              -80.9623565134435,
              44.5735461675772
            ],
            [
              -80.9622377534679,
              44.5735664509606
            ],
            [
              -80.9621499395556,
              44.5735814748786
            ],
            [
              -80.9616923629028,
              44.5736597594242
            ],
            [
              -80.961713604466,
              44.573699968393
            ],
            [
              -80.9617279550526,
              44.5737731808324
            ],
            [
              -80.9617150130243,
              44.5738631038323
            ],
            [
              -80.9616644064328,
              44.5739171117019
            ],
            [
              -80.9616012288172,
              44.5739531591546
            ],
            [
              -80.9615128498646,
              44.5739712590218
            ],
            [
              -80.9614246649481,
              44.5739532999349
            ],
            [
              -80.9612861384431,
              44.573881561438
            ],
            [
              -80.9612106601963,
              44.5738276220059
            ],
            [
              -80.9611350130662,
              44.5738007533773
            ],
            [
              -80.9611259445734,
              44.5737981790103
            ],
            [
              -80.9608469386259,
              44.5738713759683
            ],
            [
              -80.9608447045158,
              44.5738729655083
            ],
            [
              -80.9607941212805,
              44.5739179864602
            ],
            [
              -80.9607560345091,
              44.5739719782811
            ],
            [
              -80.9607180860782,
              44.5740079911446
            ],
            [
              -80.9606045336364,
              44.574044108931
            ],
            [
              -80.9604945600827,
              44.574080733503
            ],
            [
              -80.9604150996042,
              44.5741071956602
            ],
            [
              -80.96025090374,
              44.5741703495113
            ],
            [
              -80.9601624628036,
              44.5742153203201
            ],
            [
              -80.9601373683661,
              44.5742272603562
            ],
            [
              -80.9600972010965,
              44.5744568760059
            ],
            [
              -80.9600719629286,
              44.5744879203495
            ],
            [
              -80.9600297295339,
              44.5744683757378
            ],
            [
              -80.9600228969478,
              44.5744853204168
            ],
            [
              -80.9600101408708,
              44.5745392803556
            ],
            [
              -80.9600350772048,
              44.5746201628988
            ],
            [
              -80.9600347627944,
              44.5747100621924
            ],
            [
              -80.9600345373173,
              44.5748000682105
            ],
            [
              -80.9600468981356,
              44.5748629871055
            ],
            [
              -80.9600972648769,
              44.5749078684327
            ],
            [
              -80.9601223826706,
              44.5749168263928
            ],
            [
              -80.9601223620093,
              44.5749248334604
            ],
            [
              -80.9601223602127,
              44.5749258176264
            ],
            [
              -80.9601222964323,
              44.5749527881191
            ],
            [
              -80.9600970331116,
              44.5749618126219
            ],
            [
              -80.9600713844136,
              44.575087712064
            ],
            [
              -80.9600587244563,
              44.5751057104743
            ],
            [
              -80.9600208029749,
              44.5751327339952
            ],
            [
              -80.9599704281487,
              44.5751327986248
            ],
            [
              -80.9598946714242,
              44.575150885327
            ],
            [
              -80.9598441555625,
              44.5751689349095
            ],
            [
              -80.9598062493524,
              44.5751869659294
            ],
            [
              -80.9597809249463,
              44.575222962683
            ],
            [
              -80.9597556454558,
              44.5752409770489
            ],
            [
              -80.959692527129,
              44.5752500507789
            ],
            [
              -80.9596420328269,
              44.5752590093262
            ],
            [
              -80.9596041275152,
              44.5752770435177
            ],
            [
              -80.9595788040073,
              44.5753130370161
            ],
            [
              -80.959553502059,
              44.575340045723
            ],
            [
              -80.9594651518525,
              44.5753491546318
            ],
            [
              -80.959313659963,
              44.5753763284148
            ],
            [
              -80.9592127477156,
              44.5754033364524
            ],
            [
              -80.9590991557479,
              44.5754124811854
            ],
            [
              -80.958985543119,
              44.5754305127697
            ],
            [
              -80.9588718640147,
              44.5754756189015
            ],
            [
              -80.9587835650122,
              44.5755027075196
            ],
            [
              -80.9587204053629,
              44.5755297666899
            ],
            [
              -80.9586320560547,
              44.5755387763856
            ],
            [
              -80.9585310836201,
              44.5755479012606
            ],
            [
              -80.9584681090237,
              44.5755389933094
            ],
            [
              -80.9584176596374,
              44.5755300731988
            ],
            [
              -80.9583546122775,
              44.5755120774794
            ],
            [
              -80.9583043030283,
              44.5754851757146
            ],
            [
              -80.9582160642129,
              44.5754493301384
            ],
            [
              -80.9580647600713,
              44.5754404458481
            ],
            [
              -80.9579933314298,
              44.57544049512
            ],
            [
              -80.9578993963971,
              44.575437010896
            ],
            [
              -80.9578725340752,
              44.5754360145807
            ],
            [
              -80.9577444819264,
              44.5758333081995
            ],
            [
              -80.9573965141112,
              44.5769197139467
            ],
            [
              -80.9570256994434,
              44.5780774015362
            ],
            [
              -80.9568199052933,
              44.5787198770092
            ],
            [
              -80.9563825191747,
              44.5800866714364
            ],
            [
              -80.9560468897199,
              44.5811354408973
            ],
            [
              -80.9556423379233,
              44.5823995230948
            ],
            [
              -80.955154735082,
              44.583870784264
            ],
            [
              -80.954852030679,
              44.5847841057684
            ],
            [
              -80.9548155150611,
              44.5848942796564
            ],
            [
              -80.9537464219566,
              44.5880737392711
            ],
            [
              -80.9533475807502,
              44.5892804655533
            ],
            [
              -80.9531869511976,
              44.5897664485566
            ],
            [
              -80.9525518575631,
              44.5916878373111
            ],
            [
              -80.9525350357111,
              44.5918783851806
            ],
            [
              -80.9523892328523,
              44.5923011004227
            ],
            [
              -80.9515252206356,
              44.5948059311314
            ],
            [
              -80.9512986718092,
              44.5954626764477
            ],
            [
              -80.9480071799295,
              44.5949312451551
            ],
            [
              -80.9477181739362,
              44.5948823422628
            ],
            [
              -80.9472554337671,
              44.5948040389548
            ],
            [
              -80.9456867201595,
              44.5945385719804
            ],
            [
              -80.9446811981327,
              44.5943683991554
            ],
            [
              -80.9446084265099,
              44.5943560832819
            ],
            [
              -80.9445491179382,
              44.5943460453282
            ],
            [
              -80.9445113177294,
              44.5943396478269
            ],
            [
              -80.9441299343822,
              44.5942750996164
            ],
            [
              -80.9441135482131,
              44.5942162861333
            ],
            [
              -80.9440884079616,
              44.5941441011868
            ],
            [
              -80.9440631994381,
              44.5940900993115
            ],
            [
              -80.9440129970884,
              44.5939099984504
            ],
            [
              -80.9439501015438,
              44.5937658995761
            ],
            [
              -80.9438872958307,
              44.5936488996991
            ],
            [
              -80.9438244029811,
              44.5935407939062
            ],
            [
              -80.9437865946874,
              44.5934868036245
            ],
            [
              -80.9437866836206,
              44.5934493212897
            ],
            [
              -80.9437867024852,
              44.5934416986718
            ],
            [
              -80.9437993022554,
              44.5933876974232
            ],
            [
              -80.9437992932722,
              44.5933696918783
            ],
            [
              -80.9437867977066,
              44.5933426928261
            ],
            [
              -80.9437868075881,
              44.5933066964158
            ],
            [
              -80.9437616987776,
              44.593225694016
            ],
            [
              -80.9437114030031,
              44.5931086034935
            ],
            [
              -80.9436863013791,
              44.5930365969269
            ],
            [
              -80.9436737043039,
              44.593009599639
            ],
            [
              -80.9436863031758,
              44.5929825985004
            ],
            [
              -80.9437242048942,
              44.5929375980674
            ],
            [
              -80.9437241995044,
              44.5929196006992
            ],
            [
              -80.9437115979376,
              44.592892495887
            ],
            [
              -80.9436738004237,
              44.5928564991979
            ],
            [
              -80.9436235046492,
              44.5928294986278
            ],
            [
              -80.9435982988207,
              44.5928114986673
            ],
            [
              -80.9436109012858,
              44.5927934961423
            ],
            [
              -80.9436235001576,
              44.5927664968224
            ],
            [
              -80.9436488039025,
              44.5927394891738
            ],
            [
              -80.943686605908,
              44.5926945000673
            ],
            [
              -80.9436991957967,
              44.5926765000649
            ],
            [
              -80.9436992011866,
              44.5926584962188
            ],
            [
              -80.9437497996933,
              44.5924874920272
            ],
            [
              -80.9437624928883,
              44.5924154021688
            ],
            [
              -80.9437499003046,
              44.5923973963226
            ],
            [
              -80.9437499038979,
              44.59237939239
            ],
            [
              -80.9437346406229,
              44.592368493048
            ],
            [
              -80.9437120974008,
              44.5923523941571
            ],
            [
              -80.9436743960067,
              44.5923163907364
            ],
            [
              -80.9436492090427,
              44.5923072934416
            ],
            [
              -80.9436239996209,
              44.5923073017578
            ],
            [
              -80.9435988009789,
              44.5923072966402
            ],
            [
              -80.9435609989734,
              44.59229829594
            ],
            [
              -80.9435231960696,
              44.5922803009326
            ],
            [
              -80.9434980998355,
              44.5922532962566
            ],
            [
              -80.9434981043271,
              44.5922351982421
            ],
            [
              -80.9434981007339,
              44.592226201369
            ],
            [
              -80.9435359063326,
              44.5922172940539
            ],
            [
              -80.9435989042852,
              44.5922262941269
            ],
            [
              -80.9436493078574,
              44.5922172940539
            ],
            [
              -80.9436618977462,
              44.5921992971023
            ],
            [
              -80.9436745038045,
              44.5921812963069
            ],
            [
              -80.9436745038045,
              44.5921542928643
            ],
            [
              -80.9436745999243,
              44.5921183008356
            ],
            [
              -80.9436745999243,
              44.5920822979095
            ],
            [
              -80.9436871978978,
              44.5920552950606
            ],
            [
              -80.943724999005,
              44.5920373006177
            ],
            [
              -80.9437377011831,
              44.5920102964685
            ],
            [
              -80.943725096023,
              44.5920012950827
            ],
            [
              -80.9436747077221,
              44.5919562951693
            ],
            [
              -80.9436621932919,
              44.5919201910682
            ],
            [
              -80.9436748038418,
              44.5918841937769
            ],
            [
              -80.9436873928322,
              44.5918391995303
            ],
            [
              -80.9436873982221,
              44.5918211935056
            ],
            [
              -80.9436749044531,
              44.5918032009093
            ],
            [
              -80.9436496950313,
              44.5917761992102
            ],
            [
              -80.9435994046468,
              44.5917221944948
            ],
            [
              -80.9435868066732,
              44.5916951012788
            ],
            [
              -80.9435867949951,
              44.5916770952095
            ],
            [
              -80.9436119981287,
              44.591659103848
            ],
            [
              -80.9436245961023,
              44.5916500992092
            ],
            [
              -80.9436245970006,
              44.5916320969642
            ],
            [
              -80.9436245970006,
              44.5916230993581
            ],
            [
              -80.9435994962749,
              44.5916141017505
            ],
            [
              -80.943561698761,
              44.591605096465
            ],
            [
              -80.9435239057387,
              44.5915870999636
            ],
            [
              -80.9434735048614,
              44.5915509905155
            ],
            [
              -80.9434609922278,
              44.5915149949146
            ],
            [
              -80.9434609967194,
              44.5914609995523
            ],
            [
              -80.9434611009239,
              44.5914159953823
            ],
            [
              -80.9434441317482,
              44.5913917551687
            ],
            [
              -80.9434359022819,
              44.591379999058
            ],
            [
              -80.9434232962235,
              44.59136199545
            ],
            [
              -80.9433729941609,
              44.5913168939659
            ],
            [
              -80.9433352047318,
              44.5912988960957
            ],
            [
              -80.9433352002402,
              44.5912898965189
            ],
            [
              -80.9433352056301,
              44.5912718992801
            ],
            [
              -80.9433477991121,
              44.5912628920224
            ],
            [
              -80.9433604087637,
              44.5912538988371
            ],
            [
              -80.9433981981928,
              44.5912448922164
            ],
            [
              -80.9434359993,
              44.5912538943591
            ],
            [
              -80.9435116015143,
              44.5912540011924
            ],
            [
              -80.9435493945366,
              44.5912449977702
            ],
            [
              -80.9435871947454,
              44.5912269928409
            ],
            [
              -80.9435999005168,
              44.5912089962223
            ],
            [
              -80.9436377061156,
              44.5911729901741
            ],
            [
              -80.943662897571,
              44.5911279992152
            ],
            [
              -80.9436503957172,
              44.5910919963154
            ],
            [
              -80.943650508905,
              44.5910019976046
            ],
            [
              -80.9436379064398,
              44.5909659978254
            ],
            [
              -80.9436379028466,
              44.5909299001461
            ],
            [
              -80.9436632020999,
              44.5908758952841
            ],
            [
              -80.9436632029983,
              44.5908488937939
            ],
            [
              -80.9436505960416,
              44.5908308932199
            ],
            [
              -80.9436254971125,
              44.5907948958936
            ],
            [
              -80.9436002930806,
              44.5907499008036
            ],
            [
              -80.943575107015,
              44.5907137953134
            ],
            [
              -80.9435877957183,
              44.590695891936
            ],
            [
              -80.9436004017767,
              44.5906778964325
            ],
            [
              -80.943676003991,
              44.5906418938936
            ],
            [
              -80.9436886055579,
              44.5906238932555
            ],
            [
              -80.9437011954466,
              44.5906058964502
            ],
            [
              -80.9436885929814,
              44.5905968961263
            ],
            [
              -80.9436130949717,
              44.5905247924077
            ],
            [
              -80.9436005032864,
              44.5905067936525
            ],
            [
              -80.943600602101,
              44.59049780099
            ],
            [
              -80.9436132045662,
              44.5904798015867
            ],
            [
              -80.943713995541,
              44.5904618034574
            ],
            [
              -80.9437140000326,
              44.5904437970059
            ],
            [
              -80.9437140009309,
              44.5904167997931
            ],
            [
              -80.9436888013906,
              44.5904078019988
            ],
            [
              -80.9436637087498,
              44.5903807970925
            ],
            [
              -80.9436510964032,
              44.5903537992106
            ],
            [
              -80.9436636943767,
              44.5903268013162
            ],
            [
              -80.9436889055952,
              44.5902997963722
            ],
            [
              -80.9436763956565,
              44.590272797813
            ],
            [
              -80.9436133959073,
              44.5902547030201
            ],
            [
              -80.9435756037833,
              44.590227701881
            ],
            [
              -80.9435505003627,
              44.5901286943984
            ],
            [
              -80.9435756990047,
              44.5901017034365
            ],
            [
              -80.9436135046035,
              44.5901016944802
            ],
            [
              -80.9436386996522,
              44.5900926979166
            ],
            [
              -80.9436135953333,
              44.5900476914076
            ],
            [
              -80.9435632986605,
              44.5899755927653
            ],
            [
              -80.9435381000185,
              44.5899126013006
            ],
            [
              -80.9435162745504,
              44.5898852161614
            ],
            [
              -80.9434878051424,
              44.5898494965344
            ],
            [
              -80.9434248934281,
              44.5898044917562
            ],
            [
              -80.9433745051272,
              44.5897864921383
            ],
            [
              -80.9433492930104,
              44.5897504001238
            ],
            [
              -80.9433619035604,
              44.5897233961915
            ],
            [
              -80.943399700176,
              44.5897234927918
            ],
            [
              -80.9434375075713,
              44.589750496724
            ],
            [
              -80.9434878940756,
              44.5897954977056
            ],
            [
              -80.943525601758,
              44.5897955968647
            ],
            [
              -80.9435635061714,
              44.5897865976948
            ],
            [
              -80.9435886931353,
              44.5897685948726
            ],
            [
              -80.9435887021185,
              44.5896965995215
            ],
            [
              -80.9436139959819,
              44.5896605944555
            ],
            [
              -80.9436265984471,
              44.5896425922341
            ],
            [
              -80.9436140049651,
              44.5896245912865
            ],
            [
              -80.9436014986197,
              44.5895705014058
            ],
            [
              -80.9435888934596,
              44.589507499906
            ],
            [
              -80.9436016082142,
              44.5894175000211
            ],
            [
              -80.9436521007196,
              44.5893544996349
            ],
            [
              -80.9437150995705,
              44.5892644911964
            ],
            [
              -80.943803401268,
              44.5891474976109
            ],
            [
              -80.9438413056814,
              44.5891114947638
            ],
            [
              -80.9438664989336,
              44.589102498047
            ],
            [
              -80.9439043027357,
              44.5890934942915
            ],
            [
              -80.9439294977844,
              44.5890935966505
            ],
            [
              -80.9440050964055,
              44.5890845941732
            ],
            [
              -80.9440555026727,
              44.5890575950495
            ],
            [
              -80.9440932974917,
              44.5890305959133
            ],
            [
              -80.9441058999568,
              44.5889855988178
            ],
            [
              -80.9441188042558,
              44.5887695967924
            ],
            [
              -80.9441062017907,
              44.5887244926569
            ],
            [
              -80.9440684015819,
              44.5886794985231
            ],
            [
              -80.944030701086,
              44.588634497957
            ],
            [
              -80.9439048013006,
              44.5885893917974
            ],
            [
              -80.943816593028,
              44.5885442920003
            ],
            [
              -80.94376630444,
              44.5884902989962
            ],
            [
              -80.9437788934304,
              44.5884723015302
            ],
            [
              -80.9438292943078,
              44.5884632893604
            ],
            [
              -80.9439301032489,
              44.5884633942795
            ],
            [
              -80.9440182046221,
              44.5884993943294
            ],
            [
              -80.9442323001038,
              44.5885896003558
            ],
            [
              -80.9443204922068,
              44.5886075965058
            ],
            [
              -80.9444213020463,
              44.5885806944025
            ],
            [
              -80.9444244748959,
              44.5885778622311
            ],
            [
              -80.9444349438622,
              44.5885556757103
            ],
            [
              -80.9444224339236,
              44.5885107396632
            ],
            [
              -80.94442269174,
              44.5884477056668
            ],
            [
              -80.9444480871131,
              44.5883847394158
            ],
            [
              -80.9444356768875,
              44.5883398025967
            ],
            [
              -80.9443855679626,
              44.588231983134
            ],
            [
              -80.9443352075095,
              44.5881870007743
            ],
            [
              -80.9442848784974,
              44.5881690889415
            ],
            [
              -80.9442218059846,
              44.5881601842034
            ],
            [
              -80.9441713071909,
              44.5881691414014
            ],
            [
              -80.9441082328816,
              44.5881602379427
            ],
            [
              -80.9440830405277,
              44.5881422896357
            ],
            [
              -80.9439823025535,
              44.5880973769399
            ],
            [
              -80.9439066158975,
              44.5880884875449
            ],
            [
              -80.9438561368668,
              44.5880884568366
            ],
            [
              -80.943843435587,
              44.5881244315285
            ],
            [
              -80.9438431759739,
              44.5881874658755
            ],
            [
              -80.9438302087927,
              44.5882863775032
            ],
            [
              -80.9438300363162,
              44.5883583010296
            ],
            [
              -80.9438047550291,
              44.5883763170836
            ],
            [
              -80.9437546685622,
              44.5882594119156
            ],
            [
              -80.9437423742192,
              44.5881695239743
            ],
            [
              -80.9437299325525,
              44.5880976130095
            ],
            [
              -80.9437304805248,
              44.5879355008119
            ],
            [
              -80.9423521064512,
              44.5876937183462
            ],
            [
              -80.9426777241821,
              44.5866162794169
            ],
            [
              -80.9426836099438,
              44.5865968034988
            ],
            [
              -80.9428160449729,
              44.5861585769812
            ],
            [
              -80.9411734350517,
              44.5858853918857
            ],
            [
              -80.9421405343372,
              44.5828748474116
            ],
            [
              -80.9424870504748,
              44.5817960753454
            ],
            [
              -80.945035850312,
              44.5822028767396
            ],
            [
              -80.9449800245086,
              44.5824043652343
            ],
            [
              -80.9450733900094,
              44.5824204182546
            ],
            [
              -80.9450867308896,
              44.5824128037874
            ],
            [
              -80.9451372781924,
              44.5823857638155
            ],
            [
              -80.9452003884343,
              44.5823767871716
            ],
            [
              -80.9453012979868,
              44.5823946361677
            ],
            [
              -80.9453895520736,
              44.582385621776
            ],
            [
              -80.9455033039414,
              44.5823495066113
            ],
            [
              -80.9455791487008,
              44.5822954630658
            ],
            [
              -80.9456297831401,
              44.5822324639178
            ],
            [
              -80.9456680468797,
              44.5821065460346
            ],
            [
              -80.9456686226998,
              44.5819537047932
            ],
            [
              -80.9457195958039,
              44.5817917085448
            ],
            [
              -80.9457325611884,
              44.5816927980224
            ],
            [
              -80.9457458409833,
              44.5815039782061
            ],
            [
              -80.9457209944808,
              44.5813870336237
            ],
            [
              -80.9457238259706,
              44.5813596681416
            ],
            [
              -80.9457340182558,
              44.5812611542187
            ],
            [
              -80.9457719855513,
              44.5812161472698
            ],
            [
              -80.9458100534581,
              44.5811711434852
            ],
            [
              -80.9458732786844,
              44.5811171154798
            ],
            [
              -80.945988699622,
              44.5810186638496
            ],
            [
              -80.9455026391881,
              44.5806812201674
            ],
            [
              -80.9448091793146,
              44.5805657206033
            ],
            [
              -80.9420475101962,
              44.5801057042051
            ],
            [
              -80.9419728080938,
              44.5797590375938
            ],
            [
              -80.9452314216341,
              44.5784447546501
            ],
            [
              -80.945226517731,
              44.5784377328136
            ],
            [
              -80.9452014565312,
              44.5783658450023
            ],
            [
              -80.9452142853718,
              44.5783208761235
            ],
            [
              -80.9452648722004,
              44.5782758541013
            ],
            [
              -80.944685763371,
              44.578051472274
            ],
            [
              -80.9446095781501,
              44.5782044127147
            ],
            [
              -80.9445808823666,
              44.5782244538846
            ],
            [
              -80.944482619251,
              44.5782944734714
            ],
            [
              -80.9444698389194,
              44.5783214615977
            ],
            [
              -80.9444319111498,
              44.5783484861836
            ],
            [
              -80.9443817905469,
              44.5783573777079
            ],
            [
              -80.9443816890372,
              44.5783573290783
            ],
            [
              -80.9443813916949,
              44.5783573821869
            ],
            [
              -80.9443439427273,
              44.578339570983
            ],
            [
              -80.9442811343193,
              44.5783486026385
            ],
            [
              -80.9442558593204,
              44.5783666179556
            ],
            [
              -80.9442430673108,
              44.5783936092477
            ],
            [
              -80.9442177662608,
              44.5784206114049
            ],
            [
              -80.9441603711007,
              44.5784376061211
            ],
            [
              -80.9440022900685,
              44.5784657446509
            ],
            [
              -80.9439517706136,
              44.5784836927463
            ],
            [
              -80.9438436188433,
              44.5784755581966
            ],
            [
              -80.9437887012367,
              44.5784749375317
            ],
            [
              -80.9437507986199,
              44.5784928683481
            ],
            [
              -80.9436370305824,
              44.5785739347906
            ],
            [
              -80.9435987767244,
              44.5785739923779
            ],
            [
              -80.9435234637676,
              44.5785739930178
            ],
            [
              -80.9434603472374,
              44.5785830668676
            ],
            [
              -80.9434224482139,
              44.5786011013079
            ],
            [
              -80.9433971462656,
              44.5786281033688
            ],
            [
              -80.9433466717264,
              44.578628175033
            ],
            [
              -80.9432963409177,
              44.5786101617164
            ],
            [
              -80.9432458852431,
              44.5786012382378
            ],
            [
              -80.9431323139367,
              44.5786013898845
            ],
            [
              -80.9430689863024,
              44.5787002736732
            ],
            [
              -80.9430311268048,
              44.5787003210227
            ],
            [
              -80.942980630706,
              44.5787093833354
            ],
            [
              -80.9428922751096,
              44.578718493636
            ],
            [
              -80.9427911661311,
              44.5787814613994
            ],
            [
              -80.9427532491413,
              44.5788084851317
            ],
            [
              -80.9426775597904,
              44.5787995987952
            ],
            [
              -80.9426018273204,
              44.5788085926277
            ],
            [
              -80.9425513060688,
              44.5788266410749
            ],
            [
              -80.9425259996289,
              44.5788536462303
            ],
            [
              -80.9424880754526,
              44.5788806692891
            ],
            [
              -80.9423745095361,
              44.5788807198377
            ],
            [
              -80.9421847377373,
              44.5788988450453
            ],
            [
              -80.9420711296,
              44.5789169824044
            ],
            [
              -80.9419822871167,
              44.5789619508222
            ],
            [
              -80.9419315556593,
              44.5790249528742
            ],
            [
              -80.9419188049722,
              44.5790789086006
            ],
            [
              -80.941918533681,
              44.5791509318191
            ],
            [
              -80.941941341906,
              44.5791918792204
            ],
            [
              -80.9419188004806,
              44.5792228717675
            ],
            [
              -80.94188092122,
              44.5792319135234
            ],
            [
              -80.9418177831303,
              44.5792498824975
            ],
            [
              -80.9417158575832,
              44.5793848585375
            ],
            [
              -80.9416909508936,
              44.5794118679126
            ],
            [
              -80.9416404538966,
              44.5794209237158
            ],
            [
              -80.941627773278,
              44.5794479151583
            ],
            [
              -80.9416151070325,
              44.5794659102996
            ],
            [
              -80.9416023258027,
              44.5794928978821
            ],
            [
              -80.9416021793773,
              44.5794930373693
            ],
            [
              -80.9415260327839,
              44.5795649276261
            ],
            [
              -80.9414632468337,
              44.5796009677386
            ],
            [
              -80.9414128288884,
              44.5796457507114
            ],
            [
              -80.9414125558006,
              44.5796456368185
            ],
            [
              -80.9414124273415,
              44.5796457513512
            ],
            [
              -80.9412616451211,
              44.579583079494
            ],
            [
              -80.9398920430962,
              44.5790495264905
            ],
            [
              -80.9393154890755,
              44.5788641130041
            ],
            [
              -80.939006124563,
              44.5787646197097
            ],
            [
              -80.9388582088666,
              44.5787170405182
            ],
            [
              -80.9388393981446,
              44.5787169579765
            ],
            [
              -80.9387760947648,
              44.5787165779007
            ],
            [
              -80.9387255618351,
              44.5787615778266
            ],
            [
              -80.9387005437545,
              44.5788157366321
            ],
            [
              -80.9386627462406,
              44.5788698429189
            ],
            [
              -80.9386121971412,
              44.5788967533555
            ],
            [
              -80.9385489054395,
              44.5788964698992
            ],
            [
              -80.9384853954473,
              44.5788779991685
            ],
            [
              -80.9384221756108,
              44.5789048564933
            ],
            [
              -80.9383210459711,
              44.5789677248774
            ],
            [
              -80.9382833508651,
              44.5790217216076
            ],
            [
              -80.9382456728272,
              44.5790940110762
            ],
            [
              -80.9381701721225,
              44.5791840243855
            ],
            [
              -80.9380816521344,
              44.579219813912
            ],
            [
              -80.9377387184781,
              44.5792968559533
            ],
            [
              -80.9377452348571,
              44.5793505849201
            ],
            [
              -80.9377422156195,
              44.5793853198699
            ],
            [
              -80.937643078443,
              44.5794074555034
            ],
            [
              -80.9375866372937,
              44.5793938305245
            ],
            [
              -80.9375432289026,
              44.5793533222033
            ],
            [
              -80.9374486264217,
              44.579306431334
            ],
            [
              -80.9373523494811,
              44.5793049180848
            ],
            [
              -80.9372156052336,
              44.579327238666
            ],
            [
              -80.9389614154113,
              44.5798890095021
            ],
            [
              -80.9372531880501,
              44.5834538926445
            ],
            [
              -80.9362505379374,
              44.583220405211
            ],
            [
              -80.9361043712609,
              44.583381369309
            ],
            [
              -80.9356148666861,
              44.5844053627616
            ],
            [
              -80.9335524354051,
              44.583525192582
            ],
            [
              -80.9336643717777,
              44.5837914449953
            ],
            [
              -80.9337426958873,
              44.5838053741293
            ],
            [
              -80.9338589001558,
              44.5838203154267
            ],
            [
              -80.933926016884,
              44.5839238282559
            ],
            [
              -80.9339399865849,
              44.5840324797716
            ],
            [
              -80.9338620307846,
              44.58414196986
            ],
            [
              -80.93379507216,
              44.5841446563736
            ],
            [
              -80.9337838135745,
              44.5842018287308
            ],
            [
              -80.9337284782513,
              44.5841949854534
            ],
            [
              -80.9337264759065,
              44.5841522488608
            ],
            [
              -80.9336787331441,
              44.584130066409
            ],
            [
              -80.9336419273703,
              44.5842147718383
            ],
            [
              -80.9357449768752,
              44.585152385786
            ],
            [
              -80.9350650025108,
              44.5862444419265
            ],
            [
              -80.9341604780714,
              44.5859198670199
            ],
            [
              -80.9340218581416,
              44.5858701241918
            ],
            [
              -80.9339778155399,
              44.5858543197189
            ],
            [
              -80.9335881784719,
              44.5863652697627
            ],
            [
              -80.9339345966932,
              44.5864895655551
            ],
            [
              -80.9335648141897,
              44.5869741285785
            ],
            [
              -80.9324351791267,
              44.5865688813085
            ],
            [
              -80.9324260558366,
              44.5866081556017
            ],
            [
              -80.9324249931296,
              44.5866254857238
            ],
            [
              -80.9324358501682,
              44.586656128832
            ],
            [
              -80.9324355887584,
              44.58667563352
            ],
            [
              -80.9324266621994,
              44.5866864833877
            ],
            [
              -80.932415469191,
              44.586691921436
            ],
            [
              -80.9323999777439,
              44.5866964030273
            ],
            [
              -80.9323819997602,
              44.5867167861061
            ],
            [
              -80.9323057642336,
              44.5867800791668
            ],
            [
              -80.9321920411119,
              44.5868516021426
            ],
            [
              -80.9321915892593,
              44.5868518900385
            ],
            [
              -80.9320877494023,
              44.5869324163778
            ],
            [
              -80.9319156178208,
              44.5870114999313
            ],
            [
              -80.9319141275158,
              44.5870122894036
            ],
            [
              -80.9317496702418,
              44.5870744209669
            ],
            [
              -80.9315473067577,
              44.5871363528571
            ],
            [
              -80.9313449091377,
              44.5871892806309
            ],
            [
              -80.9311678125676,
              44.5872333226692
            ],
            [
              -80.9310541190903,
              44.5873047145756
            ],
            [
              -80.931016326068,
              44.5873585698524
            ],
            [
              -80.9309915154982,
              44.5874665278443
            ],
            [
              -80.9310171156871,
              44.5875117916168
            ],
            [
              -80.9310931284315,
              44.5875121837905
            ],
            [
              -80.9312323439444,
              44.5874859759613
            ],
            [
              -80.9314095725668,
              44.587459970285
            ],
            [
              -80.9316880413217,
              44.5874074675601
            ],
            [
              -80.9322070735198,
              44.5873023845564
            ],
            [
              -80.9324856572591,
              44.5872499987659
            ],
            [
              -80.9327262332787,
              44.5871973192762
            ],
            [
              -80.932941589995,
              44.587162530775
            ],
            [
              -80.9331316699159,
              44.5871366266767
            ],
            [
              -80.9332587743421,
              44.5871734733177
            ],
            [
              -80.9333226948644,
              44.5872730699389
            ],
            [
              -80.9332977612254,
              44.5873360201205
            ],
            [
              -80.9332343877771,
              44.5873446818749
            ],
            [
              -80.9331075214044,
              44.5873438828107
            ],
            [
              -80.9329552336076,
              44.5873339421694
            ],
            [
              -80.9328157530917,
              44.5873240725401
            ],
            [
              -80.9326256983237,
              44.5873499771945
            ],
            [
              -80.9324357765063,
              44.5873939045936
            ],
            [
              -80.9322711907732,
              44.5874469831167
            ],
            [
              -80.9321192200817,
              44.5874731007571
            ],
            [
              -80.9319419672048,
              44.5875080950756
            ],
            [
              -80.9317647843964,
              44.5875520959277
            ],
            [
              -80.9316003540719,
              44.5876231905938
            ],
            [
              -80.9314360836475,
              44.5877033870284
            ],
            [
              -80.9312718976647,
              44.587828500129
            ],
            [
              -80.9311962918571,
              44.5879001350518
            ],
            [
              -80.9311334187703,
              44.5879988418068
            ],
            [
              -80.9311085111825,
              44.5880887319313
            ],
            [
              -80.9310963327221,
              44.5882056841446
            ],
            [
              -80.9310842027709,
              44.5883136258488
            ],
            [
              -80.9310720746162,
              44.5884216530793
            ],
            [
              -80.9310473862173,
              44.5885654913916
            ],
            [
              -80.9309970697816,
              44.5886461970456
            ],
            [
              -80.9309769457226,
              44.5886640377192
            ],
            [
              -80.9309466374632,
              44.5886909103555
            ],
            [
              -80.9309215034999,
              44.5887447489941
            ],
            [
              -80.9309469626533,
              44.5887628768842
            ],
            [
              -80.931031341408,
              44.5887857664082
            ],
            [
              -80.9310484390428,
              44.5887904052158
            ],
            [
              -80.9310232493839,
              44.5888172560423
            ],
            [
              -80.9310210098839,
              44.5888180397324
            ],
            [
              -80.9309473444373,
              44.5888438311256
            ],
            [
              -80.9308334739919,
              44.5888790990701
            ],
            [
              -80.9308114257416,
              44.5888946711326
            ],
            [
              -80.9307576427072,
              44.5889326528475
            ],
            [
              -80.9307201542138,
              44.5890403680116
            ],
            [
              -80.9306953876614,
              44.589157124468
            ],
            [
              -80.9306959320405,
              44.5892830955321
            ],
            [
              -80.930747185419,
              44.5894092211404
            ],
            [
              -80.9307729805424,
              44.5894993451476
            ],
            [
              -80.9307353752679,
              44.5895890096828
            ],
            [
              -80.9307105072059,
              44.5896877167685
            ],
            [
              -80.930698312576,
              44.5897864876601
            ],
            [
              -80.93069885965,
              44.5898943970008
            ],
            [
              -80.930622942127,
              44.5899387920422
            ],
            [
              -80.930572376858,
              44.5899654625729
            ],
            [
              -80.9305692704837,
              44.5899732257486
            ],
            [
              -80.9305472815222,
              44.5900281968074
            ],
            [
              -80.9305096744511,
              44.5901177971933
            ],
            [
              -80.9303830191826,
              44.5901439392228
            ],
            [
              -80.9301929284819,
              44.5901607507474
            ],
            [
              -80.930053467729,
              44.5901419375002
            ],
            [
              -80.9299771046417,
              44.5900876465851
            ],
            [
              -80.9299135730898,
              44.5900423003737
            ],
            [
              -80.9298374741072,
              44.5900329135634
            ],
            [
              -80.9297487034891,
              44.5900053954163
            ],
            [
              -80.9296723736394,
              44.5899330459455
            ],
            [
              -80.9296087666291,
              44.5898877994122
            ],
            [
              -80.9295454129437,
              44.5898694044635
            ],
            [
              -80.929497515671,
              44.5898512596457
            ],
            [
              -80.9294423043154,
              44.589834880493
            ],
            [
              -80.929430595674,
              44.5898348977658
            ],
            [
              -80.9293651965246,
              44.5898503992013
            ],
            [
              -80.9292139983842,
              44.5898862979536
            ],
            [
              -80.9290754009123,
              44.5899312930725
            ],
            [
              -80.9289823201775,
              44.5899666876642
            ],
            [
              -80.9288862974602,
              44.590003191533
            ],
            [
              -80.9284828964054,
              44.5902099947515
            ],
            [
              -80.9283189960869,
              44.5903088914223
            ],
            [
              -80.9281298980246,
              44.5904167959547
            ],
            [
              -80.9280038015082,
              44.5905066976933
            ],
            [
              -80.9279872653204,
              44.590518500041
            ],
            [
              -80.927951486321,
              44.5905679394986
            ],
            [
              -80.92793511183,
              44.5905905538686
            ],
            [
              -80.9278638332072,
              44.5906408121154
            ],
            [
              -80.927847683295,
              44.5906598746946
            ],
            [
              -80.9277881681108,
              44.5907301198418
            ],
            [
              -80.9277250857166,
              44.5908014466793
            ],
            [
              -80.9276621982568,
              44.5909176967751
            ],
            [
              -80.9276506827532,
              44.5909673431635
            ],
            [
              -80.9276030244324,
              44.5911558034259
            ],
            [
              -80.9275872994233,
              44.5911951130031
            ],
            [
              -80.9275495594016,
              44.5912755751109
            ],
            [
              -80.9275244092686,
              44.5913381735902
            ],
            [
              -80.9274359027553,
              44.5913913847716
            ],
            [
              -80.9272968031251,
              44.5914354792814
            ],
            [
              -80.927182999155,
              44.5914706369013
            ],
            [
              -80.92709449354,
              44.5915239368821
            ],
            [
              -80.9270314964857,
              44.5916220483046
            ],
            [
              -80.926968389837,
              44.5916933695695
            ],
            [
              -80.9268207319571,
              44.5917572367927
            ],
            [
              -80.9267894831616,
              44.5917702153213
            ],
            [
              -80.9267407935749,
              44.5917906292463
            ],
            [
              -80.9265179790451,
              44.5919142385401
            ],
            [
              -80.9264585554891,
              44.591947385254
            ],
            [
              -80.9264577020896,
              44.5919478995828
            ],
            [
              -80.9264373031461,
              44.5919592915822
            ],
            [
              -80.9263458519552,
              44.592015400729
            ],
            [
              -80.9263363055587,
              44.5920211606935
            ],
            [
              -80.9262099647005,
              44.5921100312955
            ],
            [
              -80.9261216270704,
              44.5921810743275
            ],
            [
              -80.926007936288,
              44.5922968150145
            ],
            [
              -80.9258563635502,
              44.5924122496908
            ],
            [
              -80.9257982021271,
              44.5924455925106
            ],
            [
              -80.9257173277004,
              44.5924919558995
            ],
            [
              -80.9256471261575,
              44.5925296416386
            ],
            [
              -80.9254393224761,
              44.5928070098711
            ],
            [
              -80.9253147872317,
              44.592973231356
            ],
            [
              -80.9253039984651,
              44.5929991277355
            ],
            [
              -80.9252880461823,
              44.5930172542987
            ],
            [
              -80.9252868334567,
              44.5930181070197
            ],
            [
              -80.929494415585,
              44.5956112238728
            ],
            [
              -80.9315570651566,
              44.5968822840354
            ],
            [
              -80.9324990816827,
              44.5974627492051
            ],
            [
              -80.9333923277737,
              44.5980131458734
            ],
            [
              -80.9337742483134,
              44.5977109310192
            ],
            [
              -80.9349543588139,
              44.5984317989064
            ],
            [
              -80.9339348652895,
              44.5992353828335
            ],
            [
              -80.9327567346759,
              44.5985154587906
            ],
            [
              -80.9331387540302,
              44.5982136418488
            ],
            [
              -80.9316300892061,
              44.5972824944055
            ],
            [
              -80.9296061570232,
              44.5960332447903
            ],
            [
              -80.9272111388813,
              44.5945548301867
            ],
            [
              -80.92516000122,
              44.5932885897735
            ],
            [
              -80.9251042975875,
              44.5932542002515
            ],
            [
              -80.9249385494345,
              44.59347554754
            ],
            [
              -80.9249488665855,
              44.5935200914537
            ],
            [
              -80.9249635980578,
              44.5935837027108
            ],
            [
              -80.9249888002932,
              44.5936016998734
            ],
            [
              -80.9250391966789,
              44.5936017011527
            ],
            [
              -80.9250642992012,
              44.5936377024979
            ],
            [
              -80.9250642039798,
              44.5937187964391
            ],
            [
              -80.9250642012848,
              44.5937817984915
            ],
            [
              -80.9250640970803,
              44.593862798197
            ],
            [
              -80.9250010048046,
              44.5939257981742
            ],
            [
              -80.9249340318069,
              44.5939666807954
            ],
            [
              -80.9249127049037,
              44.5939796997709
            ],
            [
              -80.9248874038538,
              44.5940697968605
            ],
            [
              -80.9249378011378,
              44.5940967942956
            ],
            [
              -80.9249755016337,
              44.5941507993631
            ],
            [
              -80.9249628003539,
              44.5941957956582
            ],
            [
              -80.9248530891082,
              44.5942812226991
            ],
            [
              -80.9248240968807,
              44.5943037978827
            ],
            [
              -80.9247610028085,
              44.5943758028792
            ],
            [
              -80.9246979051429,
              44.5944746975788
            ],
            [
              -80.9246348020875,
              44.5945647011469
            ],
            [
              -80.9245969012673,
              44.5946457010406
            ],
            [
              -80.9245589995488,
              44.5947356985867
            ],
            [
              -80.9245336967022,
              44.5948076979305
            ],
            [
              -80.9244831997052,
              44.5948616965802
            ],
            [
              -80.9244147435889,
              44.5949430888232
            ],
            [
              -80.9244075004728,
              44.5949516969902
            ],
            [
              -80.9243995045684,
              44.595008368724
            ],
            [
              -80.9245054419916,
              44.5950296354825
            ],
            [
              -80.9285662385042,
              44.5958447472517
            ],
            [
              -80.92791279678,
              44.5975088879116
            ],
            [
              -80.9239031449498,
              44.5967223833376
            ],
            [
              -80.9238379622945,
              44.5968023023982
            ],
            [
              -80.9238105007962,
              44.5968284606108
            ],
            [
              -80.9237522567282,
              44.5968839401105
            ],
            [
              -80.9237246838388,
              44.5969102025505
            ],
            [
              -80.9236134697117,
              44.5970112549771
            ],
            [
              -80.9235967358946,
              44.5970264602564
            ],
            [
              -80.9235861753001,
              44.5970360557445
            ],
            [
              -80.9234352223997,
              44.5972068322674
            ],
            [
              -80.9233347161908,
              44.597359404408
            ],
            [
              -80.9232092556816,
              44.5975114848958
            ],
            [
              -80.9230716589329,
              44.59768970554
            ],
            [
              -80.9228617855331,
              44.5980151402888
            ],
            [
              -80.922765866122,
              44.5982045250086
            ],
            [
              -80.9227640407453,
              44.5982080942201
            ],
            [
              -80.9226840646339,
              44.5983644126728
            ],
            [
              -80.9226764568018,
              44.5983810350441
            ],
            [
              -80.9226500059082,
              44.5984389187515
            ],
            [
              -80.9226164178997,
              44.5985126373375
            ],
            [
              -80.9225917169244,
              44.598588319523
            ],
            [
              -80.9225846112505,
              44.5986101849529
            ],
            [
              -80.9225657951386,
              44.5987072622704
            ],
            [
              -80.9225833104899,
              44.5987889312071
            ],
            [
              -80.9225882530206,
              44.5988119485476
            ],
            [
              -80.9221191204399,
              44.5997342555057
            ],
            [
              -80.9221000527997,
              44.5997896356474
            ],
            [
              -80.9220971656144,
              44.5997980006781
            ],
            [
              -80.9220352627082,
              44.5998864717746
            ],
            [
              -80.9219481189391,
              44.6000019751656
            ],
            [
              -80.9218962187735,
              44.6000837452618
            ],
            [
              -80.921885826164,
              44.6001001074543
            ],
            [
              -80.921848518232,
              44.6001985197316
            ],
            [
              -80.9217985072234,
              44.6003150119951
            ],
            [
              -80.9217484261464,
              44.6004046796718
            ],
            [
              -80.9216605619284,
              44.6005122008769
            ],
            [
              -80.9214971970058,
              44.6006919166946
            ],
            [
              -80.9213209538353,
              44.6009078194025
            ],
            [
              -80.9212454710969,
              44.6010246754627
            ],
            [
              -80.9212041494921,
              44.6011013796738
            ],
            [
              -80.9211823797195,
              44.6011418191129
            ],
            [
              -80.9210865555299,
              44.6013093759273
            ],
            [
              -80.921070306803,
              44.6014094126803
            ],
            [
              -80.9210712742886,
              44.6014456368887
            ],
            [
              -80.9210924188337,
              44.6015364502754
            ],
            [
              -80.9211301453807,
              44.6015994918225
            ],
            [
              -80.9211620212002,
              44.6016680300713
            ],
            [
              -80.9211678871991,
              44.6016806443699
            ],
            [
              -80.9211425591996,
              44.6017257883395
            ],
            [
              -80.9210670333421,
              44.6017346737299
            ],
            [
              -80.9209662639268,
              44.602013714078
            ],
            [
              -80.920865387612,
              44.6020588513929
            ],
            [
              -80.9207521037664,
              44.6020767397568
            ],
            [
              -80.920638800158,
              44.6020766150347
            ],
            [
              -80.9205506862084,
              44.6021035230432
            ],
            [
              -80.9204246435908,
              44.6021755721011
            ],
            [
              -80.9203620229307,
              44.6022203140177
            ],
            [
              -80.9202768446755,
              44.602283942614
            ],
            [
              -80.9202637562218,
              44.6022937937129
            ],
            [
              -80.9201719160604,
              44.6023629214914
            ],
            [
              -80.9201348901993,
              44.6023915729104
            ],
            [
              -80.9200705546553,
              44.602450021224
            ],
            [
              -80.9200446670055,
              44.6024735411163
            ],
            [
              -80.9199395362694,
              44.6025520707398
            ]
          ]
        ]
      }
    }
  ]
}
