{"type":"FeatureCollection","features":[{"type":"Feature","id":"address_b99ced1c8cb54cc5c38b","properties":{"address_id":"address_b99ced1c8cb54cc5c38b","source_address_guid":"a8b5be84-8400-4ba5-97cf-da51958e4857","source_location_guid":"2341a756-9ad8-498e-9fb5-a08762240076","external_source":"statistics_canada_national_address_register","external_id":"a8b5be84-8400-4ba5-97cf-da51958e4857","source_retrieval_date":"2026-08-27","civic_number":"1266","civic_number_base":"1266","civic_number_suffix":"","street":"16th Street East","unit":"","label":"1266 16th Street East","base_label":"1266 16th Street East","official_street_name":"16th","official_street_type":"ST","official_street_direction":"E","nar_coordinate_source":"nar_building","normalized_address":"1266|16TH ST E|","normalized_base_address":"1266|16TH ST E|","building_use_code":"4","building_use":"unknown","address_category":"unknown","mailing_street_name":"16TH","mailing_street_type":"ST","mailing_street_direction":"E","mailing_municipality":"OWEN SOUND","mailing_province":"ON","postal_code":"N4K1Z3","association_status":"unresolved","address_source_status":"authoritative","association_candidates":[],"location_id":"2341a756-9ad8-498e-9fb5-a08762240076","structure_id":null,"nar_placement_status":"unmatched","nar_placement_distance_m":60.687148344825005,"nar_placement_rejection_reason":"no credible footprint within the conservative match threshold"},"geometry":{"type":"Point","coordinates":[-80.922542,44.574193]}},{"type":"Feature","id":"address_b0dd9681087b56bd763d","properties":{"address_id":"address_b0dd9681087b56bd763d","source_address_guid":"9f329f25-bb0f-43b1-afe2-656a1b7f2809","source_location_guid":"a7652994-debe-4ec8-8356-f3db9654ab8f","external_source":"statistics_canada_national_address_register","external_id":"9f329f25-bb0f-43b1-afe2-656a1b7f2809","source_retrieval_date":"2026-08-27","civic_number":"1800","civic_number_base":"1800","civic_number_suffix":"","street":"2nd Avenue East","unit":"","label":"1800 2nd Avenue East","base_label":"1800 2nd Avenue East","official_street_name":"2nd","official_street_type":"AVE","official_street_direction":"E","nar_coordinate_source":"nar_block_face_fallback","normalized_address":"1800|2ND AVE E|","normalized_base_address":"1800|2ND AVE E|","building_use_code":"4","building_use":"unknown","address_category":"unknown","mailing_street_name":"","mailing_street_type":"","mailing_street_direction":"","mailing_municipality":"OWEN SOUND","mailing_province":"ON","postal_code":"N4K5N3","association_status":"unresolved","address_source_status":"authoritative","association_candidates":[],"location_id":"a7652994-debe-4ec8-8356-f3db9654ab8f","structure_id":null,"nar_placement_status":"unmatched","nar_placement_distance_m":null,"nar_placement_rejection_reason":"no credible footprint within the conservative match threshold"},"geometry":{"type":"Point","coordinates":[-80.936206,44.577858]}},{"type":"Feature","id":"address_87a2e9974d505f0bedfe","properties":{"address_id":"address_87a2e9974d505f0bedfe","source_address_guid":"b9a0488f-c997-4719-afb3-637f76408ae0","source_location_guid":"7da3e343-11e6-43cf-a217-73a8b31d6524","external_source":"statistics_canada_national_address_register","external_id":"b9a0488f-c997-4719-afb3-637f76408ae0","source_retrieval_date":"2026-08-27","civic_number":"350","civic_number_base":"350","civic_number_suffix":"","street":"10th Street East","unit":"PCo1","label":"350 10th Street East Unit PCo1","base_label":"350 10th Street East","official_street_name":"10th","official_street_type":"ST","official_street_direction":"E","nar_coordinate_source":"nar_building","normalized_address":"350|10TH ST E|PCO1","normalized_base_address":"350|10TH ST E|","building_use_code":"4","building_use":"unknown","address_category":"unknown","mailing_street_name":"10TH","mailing_street_type":"ST","mailing_street_direction":"E","mailing_municipality":"OWEN SOUND","mailing_province":"ON","postal_code":"N4K6P8","association_status":"statcan_authoritative_address_location","address_source_status":"authoritative","association_candidates":[],"location_id":"7da3e343-11e6-43cf-a217-73a8b31d6524","structure_id":"structure_f5a659b6a3f6a5998d8d","nar_placement_status":"nearest","nar_placement_distance_m":14.634554985615015,"nar_placement_rejection_reason":null},"geometry":{"type":"Point","coordinates":[-80.94097,44.568103]}},{"type":"Feature","id":"address_b75e93c0fcb73b1068a4","properties":{"address_id":"address_b75e93c0fcb73b1068a4","source_address_guid":"9a2d4815-ca85-4c79-9c09-f29547500452","source_location_guid":"67979aab-acf7-43db-987e-608e497c303f","external_source":"statistics_canada_national_address_register","external_id":"9a2d4815-ca85-4c79-9c09-f29547500452","source_retrieval_date":"2026-08-27","civic_number":"507","civic_number_base":"507","civic_number_suffix":"","street":"10th A Street West","unit":"","label":"507 10th A Street West","base_label":"507 10th A Street West","official_street_name":"10th A","official_street_type":"ST","official_street_direction":"W","nar_coordinate_source":"nar_block_face_fallback","normalized_address":"507|10TH A ST W|","normalized_base_address":"507|10TH A ST W|","building_use_code":"4","building_use":"unknown","address_category":"unknown","mailing_street_name":"10TH ST A","mailing_street_type":"","mailing_street_direction":"W","mailing_municipality":"OWEN SOUND","mailing_province":"ON","postal_code":"N4K3R7","association_status":"unresolved","address_source_status":"authoritative","association_candidates":[],"location_id":"67979aab-acf7-43db-987e-608e497c303f","structure_id":null,"nar_placement_status":"ambiguous","nar_placement_distance_m":0,"nar_placement_rejection_reason":"distinct LOC_GUIDs share one footprint without sufficient multi-entrance or apartment evidence"},"geometry":{"type":"Point","coordinates":[-80.952812,44.567219]}},{"type":"Feature","id":"address_c65ddc9c9edc85355e49","properties":{"address_id":"address_c65ddc9c9edc85355e49","source_address_guid":"0a6d018e-daff-446b-9bcd-460dd445ccba","source_location_guid":"9052340c-1324-4e8d-8c91-520e6d51d12e","external_source":"statistics_canada_national_address_register","external_id":"0a6d018e-daff-446b-9bcd-460dd445ccba","source_retrieval_date":"2026-08-27","civic_number":"509","civic_number_base":"509","civic_number_suffix":"","street":"9th Avenue East","unit":"","label":"509 9th Avenue East","base_label":"509 9th Avenue East","official_street_name":"9th","official_street_type":"AVE","official_street_direction":"E","nar_coordinate_source":"nar_block_face_fallback","normalized_address":"509|9TH AVE E|","normalized_base_address":"509|9TH AVE E|","building_use_code":"4","building_use":"unknown","address_category":"unknown","mailing_street_name":"9TH","mailing_street_type":"AVE","mailing_street_direction":"E","mailing_municipality":"OWEN SOUND","mailing_province":"ON","postal_code":"N4K3E2","association_status":"unresolved","address_source_status":"authoritative","association_candidates":[],"location_id":"9052340c-1324-4e8d-8c91-520e6d51d12e","structure_id":null,"nar_placement_status":"ambiguous","nar_placement_distance_m":19.85658830329832,"nar_placement_rejection_reason":"distinct LOC_GUIDs share one footprint without sufficient multi-entrance or apartment evidence"},"geometry":{"type":"Point","coordinates":[-80.925996,44.559736]}},{"type":"Feature","id":"address_72308502b812d26c377a","properties":{"address_id":"address_72308502b812d26c377a","source_address_guid":"66acc66d-fc47-4342-b0a8-50332ef0c875","source_location_guid":"56f138e2-d6e1-43d1-b735-20199d783070","external_source":"statistics_canada_national_address_register","external_id":"66acc66d-fc47-4342-b0a8-50332ef0c875","source_retrieval_date":"2026-08-27","civic_number":"713","civic_number_base":"713","civic_number_suffix":"","street":"9th Avenue East","unit":"","label":"713 9th Avenue East","base_label":"713 9th Avenue East","official_street_name":"9th","official_street_type":"AVE","official_street_direction":"E","nar_coordinate_source":"nar_building","normalized_address":"713|9TH AVE E|","normalized_base_address":"713|9TH AVE E|","building_use_code":"4","building_use":"unknown","address_category":"unknown","mailing_street_name":"9TH","mailing_street_type":"AVE","mailing_street_direction":"E","mailing_municipality":"OWEN SOUND","mailing_province":"ON","postal_code":"N4K3E6","association_status":"statcan_authoritative_address_location","address_source_status":"authoritative","association_candidates":[],"location_id":"56f138e2-d6e1-43d1-b735-20199d783070","structure_id":"structure_2ca18ddc880830812884","nar_placement_status":"nearest","nar_placement_distance_m":5.651038113406611,"nar_placement_rejection_reason":null},"geometry":{"type":"Point","coordinates":[-80.926947,44.563969]}},{"type":"Feature","id":"address_58414dd4083939792e71","properties":{"address_id":"address_58414dd4083939792e71","source_address_guid":"8686da62-4d05-4189-aeda-279a4dca39e3","source_location_guid":"047daf52-a565-4257-ac42-aca3ad3c9700","external_source":"statistics_canada_national_address_register","external_id":"8686da62-4d05-4189-aeda-279a4dca39e3","source_retrieval_date":"2026-08-27","civic_number":"75","civic_number_base":"75","civic_number_suffix":"","street":"2nd Avenue East","unit":"","label":"75 2nd Avenue East","base_label":"75 2nd Avenue East","official_street_name":"2nd","official_street_type":"AVE","official_street_direction":"E","nar_coordinate_source":"nar_building","normalized_address":"75|2ND AVE E|","normalized_base_address":"75|2ND AVE E|","building_use_code":"4","building_use":"unknown","address_category":"unknown","mailing_street_name":"2ND","mailing_street_type":"AVE","mailing_street_direction":"E","mailing_municipality":"OWEN SOUND","mailing_province":"ON","postal_code":"N4K2E5","association_status":"unresolved","address_source_status":"authoritative","association_candidates":[],"location_id":"047daf52-a565-4257-ac42-aca3ad3c9700","structure_id":null,"nar_placement_status":"unmatched","nar_placement_distance_m":null,"nar_placement_rejection_reason":"no credible footprint within the conservative match threshold"},"geometry":{"type":"Point","coordinates":[-80.940795,44.546884]}},{"type":"Feature","id":"address_f88d3d9c5ffe37683d80","properties":{"address_id":"address_f88d3d9c5ffe37683d80","source_address_guid":"9f45e02a-b25f-468c-b830-406ddc782635","source_location_guid":"942335a6-e3d1-4022-8393-cdd0f25da6a6","external_source":"statistics_canada_national_address_register","external_id":"9f45e02a-b25f-468c-b830-406ddc782635","source_retrieval_date":"2026-08-27","civic_number":"850","civic_number_base":"850","civic_number_suffix":"","street":"4th Street East","unit":"","label":"850 4th Street East","base_label":"850 4th Street East","official_street_name":"4th","official_street_type":"ST","official_street_direction":"E","nar_coordinate_source":"nar_building","normalized_address":"850|4TH ST E|","normalized_base_address":"850|4TH ST E|","building_use_code":"4","building_use":"unknown","address_category":"unknown","mailing_street_name":"4TH","mailing_street_type":"ST","mailing_street_direction":"E","mailing_municipality":"OWEN SOUND","mailing_province":"ON","postal_code":"N4K6A3","association_status":"unresolved","address_source_status":"authoritative","association_candidates":[],"location_id":"942335a6-e3d1-4022-8393-cdd0f25da6a6","structure_id":null,"nar_placement_status":"ambiguous","nar_placement_distance_m":25.696269471229805,"nar_placement_rejection_reason":"distinct LOC_GUIDs share one footprint without sufficient multi-entrance or apartment evidence"},"geometry":{"type":"Point","coordinates":[-80.928204,44.558025]}},{"type":"Feature","id":"address_fef79b07b21be28b4533","properties":{"address_id":"address_fef79b07b21be28b4533","source_address_guid":"70561463-3b18-4cc1-8bf4-83ad262d173b","source_location_guid":"e3dd73b4-3e14-4a28-9ba3-530d0410f143","external_source":"statistics_canada_national_address_register","external_id":"70561463-3b18-4cc1-8bf4-83ad262d173b","source_retrieval_date":"2026-08-27","civic_number":"850A","civic_number_base":"850","civic_number_suffix":"A","street":"4th Street East","unit":"","label":"850A 4th Street East","base_label":"850A 4th Street East","official_street_name":"4th","official_street_type":"ST","official_street_direction":"E","nar_coordinate_source":"nar_building","normalized_address":"850A|4TH ST E|","normalized_base_address":"850A|4TH ST E|","building_use_code":"4","building_use":"unknown","address_category":"unknown","mailing_street_name":"4TH","mailing_street_type":"ST","mailing_street_direction":"E","mailing_municipality":"OWEN SOUND","mailing_province":"ON","postal_code":"N4K1B6","association_status":"unresolved","address_source_status":"authoritative","association_candidates":[],"location_id":"e3dd73b4-3e14-4a28-9ba3-530d0410f143","structure_id":null,"nar_placement_status":"ambiguous","nar_placement_distance_m":25.696269471229805,"nar_placement_rejection_reason":"distinct LOC_GUIDs share one footprint without sufficient multi-entrance or apartment evidence"},"geometry":{"type":"Point","coordinates":[-80.928204,44.558025]}},{"type":"Feature","id":"address_3d8b9df397e3bd4fd8fe","properties":{"address_id":"address_3d8b9df397e3bd4fd8fe","source_address_guid":"3db8b2bf-0201-4a31-a84c-d31c1ec99716","source_location_guid":"9dc5fd02-cc8b-4aa4-81b5-43c89c04efba","external_source":"statistics_canada_national_address_register","external_id":"3db8b2bf-0201-4a31-a84c-d31c1ec99716","source_retrieval_date":"2026-08-27","civic_number":"896","civic_number_base":"896","civic_number_suffix":"","street":"6th Street East","unit":"","label":"896 6th Street East","base_label":"896 6th Street East","official_street_name":"6th","official_street_type":"ST","official_street_direction":"E","nar_coordinate_source":"nar_building","normalized_address":"896|6TH ST E|","normalized_base_address":"896|6TH ST E|","building_use_code":"4","building_use":"unknown","address_category":"unknown","mailing_street_name":"6TH","mailing_street_type":"ST","mailing_street_direction":"E","mailing_municipality":"OWEN SOUND","mailing_province":"ON","postal_code":"N4K1G8","association_status":"unresolved","address_source_status":"authoritative","association_candidates":[],"location_id":"9dc5fd02-cc8b-4aa4-81b5-43c89c04efba","structure_id":null,"nar_placement_status":"ambiguous","nar_placement_distance_m":49.89058075526684,"nar_placement_rejection_reason":"distinct LOC_GUIDs share one footprint without sufficient multi-entrance or apartment evidence"},"geometry":{"type":"Point","coordinates":[-80.926792,44.561965]}},{"type":"Feature","id":"address_9d2d458a683208e4028b","properties":{"address_id":"address_9d2d458a683208e4028b","source_address_guid":"6f2b64d5-5ce7-4765-a9ed-e2f99a82a344","source_location_guid":"e35ec3c2-b381-4e90-8171-fc59da1a3a6d","external_source":"statistics_canada_national_address_register","external_id":"6f2b64d5-5ce7-4765-a9ed-e2f99a82a344","source_retrieval_date":"2026-08-27","civic_number":"971","civic_number_base":"971","civic_number_suffix":"","street":"2nd Avenue East","unit":"PCo1","label":"971 2nd Avenue East Unit PCo1","base_label":"971 2nd Avenue East","official_street_name":"2nd","official_street_type":"AVE","official_street_direction":"E","nar_coordinate_source":"nar_building","normalized_address":"971|2ND AVE E|PCO1","normalized_base_address":"971|2ND AVE E|","building_use_code":"4","building_use":"unknown","address_category":"unknown","mailing_street_name":"2ND","mailing_street_type":"AVE","mailing_street_direction":"E","mailing_municipality":"OWEN SOUND","mailing_province":"ON","postal_code":"N4K2H5","association_status":"unresolved","address_source_status":"authoritative","association_candidates":[],"location_id":"e35ec3c2-b381-4e90-8171-fc59da1a3a6d","structure_id":null,"nar_placement_status":"unmatched","nar_placement_distance_m":null,"nar_placement_rejection_reason":"no credible footprint within the conservative match threshold"},"geometry":{"type":"Point","coordinates":[-80.942989,44.567168]}}]}
